STARLINK-4063           
1 53132U 22083A   25161.68557854  .00000352  00000+0  40187-4 0  9995
2 53132  53.2173 315.1938 0001333  88.7612 271.3533 15.08833165160785
STARLINK-4150           
1 53134U 22083C   25161.69293424  .00000061  00000+0  21911-4 0  9999
2 53134  53.2190 315.1619 0001325  84.6022 275.5122 15.08840344160151
STARLINK-4023           
1 53135U 22083D   25161.83277169  .00000004  00000+0  18361-4 0  9996
2 53135  53.2181 314.5327 0001188  88.8252 271.2876 15.08838823161169
STARLINK-4152           
1 53136U 22083E   25161.69661291 -.00000354  00000+0 -41802-5 0  9991
2 53136  53.2189 315.1442 0001437  91.6630 268.4527 15.08839945161147
STARLINK-4145           
1 53137U 22083F   25161.75549290  .00000383  00000+0  42178-4 0  9999
2 53137  53.2177 314.8798 0001285  90.4011 269.7129 15.08839486160169
STARLINK-4141           
1 53138U 22083G   25161.82037696 -.00000860  00000+0 -35951-4 0  9993
2 53138  53.2192 309.7705 0001340  95.0712 265.0433 15.08835471161011
STARLINK-4185           
1 53139U 22083H   25161.67821632 -.00000005  00000+0  17758-4 0  9993
2 53139  53.2187 315.2260 0001338  88.9851 271.1294 15.08838747160152
STARLINK-4170           
1 53140U 22083J   25161.68189686  .00000327  00000+0  38605-4 0  9992
2 53140  53.2178 315.2099 0001045  85.0388 275.0723 15.08837068160157
STARLINK-4103           
1 53141U 22083K   25161.72974256 -.00000580  00000+0 -18360-4 0  9992
2 53141  53.2195 314.9980 0001371  94.7310 265.3838 15.08829612160162
STARLINK-4101           
1 53142U 22083L   25161.80429314 -.00000377  00000+0 -55881-5 0  9996
2 53142  53.2195 314.6335 0001379  88.6351 271.4800 15.08833965160184
STARLINK-4102           
1 53143U 22083M   25161.72605920 -.00000173  00000+0  71891-5 0  9999
2 53143  53.2190 315.0143 0001316  97.5190 262.5952 15.08831815160162
STARLINK-4100           
1 53144U 22083N   25161.80333742  .00000258  00000+0  34288-4 0  9990
2 53144  53.2189 314.6740 0001301  92.5228 267.5913 15.08836523160174
STARLINK-4106           
1 53145U 22083P   25161.71869975 -.00001154  00000+0 -54476-4 0  9992
2 53145  53.2199 315.0498 0001249  99.6167 260.4966 15.08829470160164
STARLINK-4094           
1 53147U 22083R   25161.58253309 -.00000610  00000+0 -20226-4 0  9999
2 53147  53.2179 315.6594 0001083  82.9113 277.2002 15.08837770160797
STARLINK-4021           
1 53149U 22083T   25161.80891689 -.00000560  00000+0 -17107-4 0  9993
2 53149  53.2193 304.8429 0001277  96.5223 263.5915 15.08834858160313
STARLINK-4038           
1 53150U 22083U   25161.69753653  .00000153  00000+0  27730-4 0  9999
2 53150  53.2186 305.1430 0001262  94.3342 265.7795 15.08833066160292
STARLINK-4040           
1 53151U 22083V   25161.68649653 -.00000678  00000+0 -24502-4 0  9991
2 53151  53.2180 305.1913 0001064  87.2447 272.8667 15.08833936160293
STARLINK-4045           
1 53152U 22083W   25161.69385411 -.00000302  00000+0 -85880-6 0  9994
2 53152  53.2186 305.1575 0001243  84.9300 275.1834 15.08834542160291
STARLINK-4098           
1 53153U 22083X   25161.81529512 -.00000459  00000+0 -10767-4 0  9994
2 53153  53.2182 304.6121 0001294  91.8469 268.2671 15.08834594160310
STARLINK-4077           
1 53154U 22083Y   25161.69017603 -.00000435  00000+0 -92562-5 0  9992
2 53154  53.2190 305.1751 0001245  87.2565 272.8570 15.08834605160296
STARLINK-4088           
1 53155U 22083Z   25161.80793851 -.00000685  00000+0 -24949-4 0  9992
2 53155  53.2185 304.6441 0001421  95.7833 264.3322 15.08832149160954
STARLINK-4087           
1 53156U 22083AA  25161.66440107  .00000109  00000+0  24924-4 0  9992
2 53156  53.2190 305.1630 0001286  89.0059 271.1080 15.08836930160298
STARLINK-4093           
1 53157U 22083AB  25162.25002315  .00715313  00000+0  17918-1 0  9996
2 53157  53.2339 300.0648 0000630  61.6058 116.8161 15.37090058161048
STARLINK-4054           
1 53158U 22083AC  25161.81161563 -.00000224  00000+0  40234-5 0  9999
2 53158  53.2184 304.6289 0001324  94.1206 265.9938 15.08834855160311
STARLINK-4111           
1 53159U 22083AD  25161.66073994 -.00000211  00000+0  48102-5 0  9991
2 53159  53.2167 305.3041 0001284  87.0131 273.1008 15.08832590160290
STARLINK-4096           
1 53160U 22083AE  25161.80425304 -.00000334  00000+0 -28983-5 0  9997
2 53160  53.2196 304.6608 0001327  93.3010 266.8134 15.08838062160940
STARLINK-4055           
1 53161U 22083AF  25161.64969534  .00000496  00000+0  49251-4 0  9995
2 53161  53.2187 305.3555 0001365  88.2687 271.8462 15.08833788160293
STARLINK-4114           
1 53162U 22083AG  25161.66537622  .00000639  00000+0  58255-4 0  9990
2 53162  53.2181 305.2941 0001485  89.3975 270.7187 15.08836664160299
STARLINK-4104           
1 53163U 22083AH  25161.65707195 -.00000080  00000+0  13045-4 0  9993
2 53163  53.2180 305.4650 0001137  87.6819 272.4304 15.08837449160292
STARLINK-4116           
1 53164U 22083AJ  25161.78585478  .00000178  00000+0  29248-4 0  9995
2 53164  53.2185 304.7440 0001322  89.2803 270.8341 15.08839410160310
STARLINK-4090           
1 53165U 22083AK  25161.77113848 -.00000066  00000+0  13919-4 0  9998
2 53165  53.2191 304.8138 0001359  95.2052 264.9095 15.08835188160943
STARLINK-4110           
1 53166U 22083AL  25161.70216613 -.00000399  00000+0 -69534-5 0  9991
2 53166  53.2188 305.0227 0001372  95.5337 264.5812 15.08830135160935
STARLINK-3683           
1 53167U 22083AM  25161.65659759 -.00000521  00000+0 -14683-4 0  9999
2 53167  53.2173 290.3158 0001145  82.8496 277.2626 15.08833243160490
STARLINK-4105           
1 53168U 22083AN  25161.77482637  .00000302  00000+0  37064-4 0  9995
2 53168  53.2182 304.7936 0001203  83.7316 276.3813 15.08831975160310
STARLINK-4117           
1 53169U 22083AP  25161.56830722 -.00000417  00000+0 -81306-5 0  9993
2 53169  53.2183 290.9800 0001116  86.7190 273.3930 15.08832512160476
STARLINK-4095           
1 53170U 22083AQ  25161.67039043 -.00000033  00000+0  16002-4 0  9997
2 53170  53.2183 300.2142 0001231  92.5521 267.5612 15.08833301160360
STARLINK-4052           
1 53171U 22083AR  25161.71130705 -.00000278  00000+0  59342-6 0  9997
2 53171  53.2176 274.8404 0001244  90.6635 269.4499 15.08834560160710
STARLINK-4299           
1 53172U 22083AS  25161.66300570  .00003825  00000+0  25814-3 0  9995
2 53172  53.2174 300.2075 0001149  67.5338 292.5776 15.08862928160358
STARLINK-4300           
1 53173U 22083AT  25161.61703549 -.00000590  00000+0 -18996-4 0  9996
2 53173  53.2183 280.4926 0001103  91.3965 268.7153 15.08834282160620
STARLINK-4205           
1 53174U 22083AU  25161.83739465  .00000680  00000+0  60810-4 0  9997
2 53174  53.2184 314.4463 0001308  89.4620 270.6522 15.08842128160179
STARLINK-4292           
1 53175U 22083AV  25161.84012726  .00000541  00000+0  52071-4 0  9999
2 53175  53.2182 314.5012 0001195  86.8888 273.2241 15.08843398160818
STARLINK-4294           
1 53176U 22083AW  25161.64554205 -.00000310  00000+0 -14262-5 0  9998
2 53176  53.2179 290.2888 0001133  88.5395 271.5727 15.08837912160499
STARLINK-4298           
1 53177U 22083AX  25161.54343291 -.00000463  00000+0 -11011-4 0  9996
2 53177  53.2177 280.8209 0001364  95.3575 264.7573 15.08837434161259
STARLINK-4280           
1 53178U 22083AY  25161.70121904  .00000055  00000+0  21520-4 0  9991
2 53178  53.2179 305.1265 0001236  94.2945 265.8189 15.08832268160289
STARLINK-4276           
1 53179U 22083AZ  25161.69381120 -.00001058  00000+0 -48401-4 0  9991
2 53179  53.2185 264.7540 0001448 100.1750 259.9405 15.08832329160855
STARLINK-4258           
1 53180U 22083BA  25161.52088361  .00000208  00000+0  31176-4 0  9991
2 53180  53.2170 265.8040 0000843  77.8707 282.2380 15.08832972161461
STARLINK-4278           
1 53182U 22083BC  25161.73847857 -.00000328  00000+0 -25227-5 0  9995
2 53182  53.2174 279.9446 0001442  98.4947 261.6209 15.08832871160642
STARLINK-4268           
1 53183U 22083BD  25161.68050640  .00000056  00000+0  21614-4 0  9997
2 53183  53.2178 270.1328 0001245  89.2281 270.8854 15.08836376160775
STARLINK-4257           
1 53184U 22083BE  25161.55766361 -.00001936  00000+0 -10366-3 0  9999
2 53184  53.2164 265.3523 0001369  85.5669 274.5480 15.08819629160846
STARLINK-4391           
1 53189U 22084A   25162.11179893  .00013233  00000+0  10347-2 0  9995
2 53189  97.6556 223.8108 0002461  81.0416 279.1086 15.01192666158951
STARLINK-4332           
1 53190U 22084B   25161.67275083  .00000271  00000+0  25725-4 0  9991
2 53190  97.6544 223.3654 0002631 178.7948 181.3283 15.01257036159175
STARLINK-4369           
1 53191U 22084C   25162.16709310 -.00000047  00000+0  94689-6 0  9991
2 53191  97.6535 223.8746 0003013  81.4973 278.6593 15.01258714158959
STARLINK-4375           
1 53192U 22084D   25161.76532687  .00000612  00000+0  52257-4 0  9998
2 53192  97.6528 223.4740 0002357  90.2218 269.9276 15.01259612159187
STARLINK-4351           
1 53193U 22084E   25162.10414446 -.00000094  00000+0 -26987-5 0  9998
2 53193  97.6548 223.8156 0002830  83.7554 276.3993 15.01257227158953
STARLINK-4382           
1 53194U 22084F   25162.10229231  .00000411  00000+0  36619-4 0  9998
2 53194  97.6544 223.8133 0002847  89.4407 270.7143 15.01260098158947
STARLINK-4404           
1 53195U 22084G   25161.88936917 -.00000567  00000+0 -39521-4 0  9998
2 53195  97.6536 223.6070 0001263 104.5967 255.5398 15.01260903158913
STARLINK-4407           
1 53196U 22084H   25161.89122208 -.00000115  00000+0 -43742-5 0  9990
2 53196  97.6538 223.6092 0001340  94.0747 266.0630 15.01259856158916
STARLINK-4403           
1 53197U 22084J   25161.89306271 -.00002867  00000+0 -21871-3 0  9998
2 53197  97.6541 223.5940 0000893 116.0233 244.1083 15.01264175158918
STARLINK-4385           
1 53198U 22084K   25161.76347537 -.00000214  00000+0 -12099-4 0  9992
2 53198  97.6532 223.4682 0002194  93.8038 266.3437 15.01263088159172
